STARLINK-3277           
1 50182U 21125AC  26140.12055053  .00001194  00000+0  93105-4 0  9997
2 50182  53.2175 288.3001 0001219  89.1842 270.9290 15.08836195247422
STARLINK-3281           
1 50183U 21125AD  26140.13896375  .00000803  00000+0  68565-4 0  9997
2 50183  53.2173 288.3710 0001263  87.4083 272.7054 15.08838801247430
STARLINK-3279           
1 50185U 21125AF  26140.15000656  .00000253  00000+0  33971-4 0  9992
2 50185  53.2173 288.3590 0001182  90.2024 269.9104 15.08836938247393
STARLINK-3274           
1 50186U 21125AG  26140.16012419  .00000711  00000+0  62777-4 0  9999
2 50186  53.2160 298.2762 0001374  92.3510 267.7639 15.08838094247245
STARLINK-3272           
1 50187U 21125AH  26140.07568079  .00016917  00000+0  10207-2 0  9992
2 50187  53.2157 278.1741 0001244 115.6948 244.4174 15.10850132247501
STARLINK-3276           
1 50189U 21125AK  26140.13463271  .00022169  00000+0  11762-2 0  9992
2 50189  53.2136 284.9736 0002291  22.5884 337.5211 15.15295036247470
STARLINK-3268           
1 50190U 21125AL  26139.71300711  .00001138  00000+0  89605-4 0  9991
2 50190  53.2168 280.2839 0001289  90.7647 269.3493 15.08837172247457
STARLINK-3273           
1 50191U 21125AM  26139.72220247 -.00000075  00000+0  13375-4 0  9999
2 50191  53.2175 300.2434 0001450  88.0453 272.0705 15.08839059247177
STARLINK-3259           
1 50192U 21125AN  26140.10676335  .00000545  00000+0  52350-4 0  9994
2 50192  53.2170 278.5171 0001211  94.0195 266.0935 15.08840135247516
STARLINK-3261           
1 50193U 21125AP  26140.11780314  .00001045  00000+0  83727-4 0  9997
2 50193  53.2176 278.4672 0001156  87.7077 272.4048 15.08841494247564
STARLINK-3266           
1 50195U 21125AR  26140.11412315  .00001992  00000+0  14321-3 0  9996
2 50195  53.2182 278.4853 0001341  85.9409 274.1736 15.08842288247519
STARLINK-3267           
1 50197U 21125AT  26140.09940288  .00000508  00000+0  49973-4 0  9994
2 50197  53.2159 278.5495 0001068  92.4591 267.6524 15.08840258247561
STARLINK-3264           
1 50198U 21125AU  26140.08468754 -.00001013  00000+0 -45595-4 0  9997
2 50198  53.2177 278.6163 0000959  85.9733 274.1369 15.08839620247514
STARLINK-3270           
1 50199U 21125AV  26139.80132494  .00000309  00000+0  37494-4 0  9999
2 50199  53.2176 279.8858 0001267  95.7725 264.3412 15.08830783247466
STARLINK-3235           
1 50200U 21125AW  26140.08836119  .00000290  00000+0  36314-4 0  9998
2 50200  53.2176 278.5607 0001171  88.4487 271.6640 15.08833440247529
STARLINK-3255           
1 50201U 21125AX  26140.22489587  .00381702  77813-4  54462-3 0  9992
2 50201  53.1842 138.2780 0007069  28.6171 331.5249 16.04957225249495
STARLINK-3256           
1 50202U 21125AY  26139.79764571  .00001305  00000+0  10005-3 0  9994
2 50202  53.2168 279.9025 0001336  89.9132 270.2013 15.08836479247464
STARLINK-3257           
1 50203U 21125AZ  26139.89797245 -.00000494  00000+0 -12969-4 0  9992
2 50203  53.2167 279.5402 0001436  87.9469 272.1687 15.08841800247542
STARLINK-3254           
1 50204U 21125BA  26139.80596095 -.00001039  00000+0 -47205-4 0  9991
2 50204  53.2190 279.8775 0001476  97.9016 262.2144 15.08846061247528
STARLINK-3260           
1 50205U 21125BB  26139.74617006  .00001421  00000+0  10737-3 0  9993
2 50205  53.2166 250.1340 0001111  87.0880 273.0239 15.08830761247881
TURKSAT 5B              
1 50212U 21126A   26140.24488634  .00000142  00000+0  00000+0 0  9999
2 50212   0.0699 341.2009 0004253   9.6783  17.1714  1.00271228 16014
INMARSAT 6-F1           
1 50319U 21128A   26140.11058484 -.00000176  00000+0  00000+0 0  9999
2 50319   0.0137 285.1166 0000243 350.8343  85.3962  1.00270006 15976
SHIYAN-12 01 (SY-12 01) 
1 50321U 21129A   26139.46902102 -.00000126  00000+0  00000+0 0  9999
2 50321   3.6020  80.2818 0003861 279.9018 130.0506  1.00037841 16214
SHIYAN-12 02 (SY-12 02) 
1 50322U 21129B   26139.53514794 -.00000053  00000+0  00000+0 0  9993
2 50322   3.6021  80.2901 0001998  52.4057   3.3769  1.00490815 16212
ZY-1 02E                
1 50465U 21131A   26140.26510287  .00000083  00000+0  44031-4 0  9998
2 50465  98.4433 217.9462 0001135 129.7886 230.3400 14.35389409230413
XW-3 (CAS-9)            
1 50466U 21131B   26140.28664990  .00000423  00000+0  14423-3 0  9991
2 50466  98.4969 232.8293 0004353 165.1935 194.9382 14.41327961231091
ONEWEB-0389             
1 50469U 21132A   26140.17827234  .00000048  00000+0  89925-4 0  9998
2 50469  87.9155  11.4379 0002144  90.6575 269.4802 13.17650723214394
ONEWEB-0390             
1 50470U 21132B   26140.17995664  .00000052  00000+0  99724-4 0  9996
2 50470  87.9156  11.4382 0001668  88.7411 271.3912 13.17650381214392
ONEWEB-0391             
1 50471U 21132C   26140.18164495  .00000031  00000+0  46481-4 0  9997
2 50471  87.9158  11.4474 0002305 104.1792 255.9596 13.17650633214397
ONEWEB-0392             
1 50472U 21132D   26140.13609167  .00000056  00000+0  11063-3 0  9997
2 50472  87.9166  11.4224 0002149  92.5414 267.5964 13.17648986214427
ONEWEB-0393             
1 50473U 21132E   26140.18755040  .00000038  00000+0  64969-4 0  9999
2 50473  87.9157  11.4317 0001987  87.4425 272.6934 13.17648983214426
ONEWEB-0394             
1 50474U 21132F   26140.25144137 -.00000004  00000+0 -41793-4 0  9992
2 50474  87.9170 341.0012 0002086  90.6501 269.4871 13.18687735217918
ONEWEB-0395             
1 50475U 21132G   26140.24241393 -.00000405  00000+0 -11783-2 0  9993
2 50475  87.8907  26.6276 0001765  88.8882 271.2448 13.11414152212053
ONEWEB-0396             
1 50476U 21132H   26140.09294192 -.00000046  00000+0 -15040-3 0  9994
2 50476  87.9174 341.0452 0002022  89.1600 270.9763 13.18687910217939
ONEWEB-0397             
1 50477U 21132J   26140.25987233 -.00000031  00000+0 -11169-3 0  9990
2 50477  87.9175 341.0120 0002055  85.8536 274.2831 13.18687817217939
ONEWEB-0398             
1 50478U 21132K   26140.21021827  .00000633  00000+0  17491-2 0  9994
2 50478  87.8918  26.6218 0001571  87.5615 272.5693 13.11416413211944
ONEWEB-0399             
1 50479U 21132L   26140.19664456  .00000274  00000+0  73839-3 0  9993
2 50479  87.8920  26.6350 0002310  86.5701 273.5692 13.11418553211938
ONEWEB-0400             
1 50480U 21132M   26140.08618533  .00000004  00000+0 -23257-4 0  9990
2 50480  87.9173 341.0363 0001661  91.5207 268.6116 13.18687883217904
ONEWEB-0401             
1 50481U 21132N   26140.28347901  .00000056  00000+0  11033-3 0  9995
2 50481  87.9173 340.9939 0001936  80.6873 279.4478 13.18687475217936
ONEWEB-0402             
1 50482U 21132P   26140.24637753 -.00000029  00000+0 -10633-3 0  9996
2 50482  87.9172 340.9913 0002140  76.4913 283.6458 13.18686499217956
ONEWEB-0403             
1 50483U 21132Q   26140.27166936  .00000026  00000+0  33916-4 0  9995
2 50483  87.9171 341.0101 0001934  90.8470 269.2884 13.18686858217913
ONEWEB-0404             
1 50484U 21132R   26140.17798861 -.00000423  00000+0 -12285-2 0  9990
2 50484  87.8919  26.6382 0002002  89.9278 270.2080 13.11417388212022
ONEWEB-0405             
1 50485U 21132S   26140.28515255  .00000045  00000+0  81757-4 0  9997
2 50485  87.9173 340.9912 0001468  96.9364 263.1936 13.18684936218317
ONEWEB-0406             
1 50486U 21132T   26140.27673564 -.00000028  00000+0 -10486-3 0  9998
2 50486  87.9164 341.0120 0002261  98.9011 261.2377 13.18687151217942
ONEWEB-0407             
1 50487U 21132U   26140.26997468  .00000008  00000+0 -12961-4 0  9998
2 50487  87.9174 341.0035 0001728  81.9198 278.2131 13.18685052217881
ONEWEB-0409             
1 50488U 21132V   26140.17629074 -.00000487  00000+0 -14113-2 0  9995
2 50488  87.8922  26.6257 0001861  90.1347 269.9994 13.11418112211916
ONEWEB-0412             
1 50489U 21132W   26140.25818366  .00000027  00000+0  34885-4 0  9997
2 50489  87.9171 341.0150 0002019  79.9016 280.2344 13.18687570217974
ONEWEB-0413             
1 50490U 21132X   26140.26324115  .00000039  00000+0  66869-4 0  9994
2 50490  87.9165 341.0149 0001882  78.4701 281.6642 13.18687211217911
ONEWEB-0414             
1 50491U 21132Y   26140.24805648 -.00000082  00000+0 -23951-3 0  9992
2 50491  87.9177 340.9971 0001999  85.8072 274.3289 13.18686621217941
ONEWEB-0417             
1 50492U 21132Z   26140.25649702  .00000015  00000+0  52136-5 0  9994
2 50492  87.9162 341.0174 0001956  93.8283 266.3073 13.18687974217921
ONEWEB-0418             
1 50493U 21132AA  26140.03883527  .00000103  00000+0  22874-3 0  9998
2 50493  87.9173 341.0577 0001984  95.6244 264.5114 13.18685076217959
ONEWEB-0419             
1 50494U 21132AB  26140.28462231 -.00000008  00000+0 -52602-4 0  9990
2 50494  87.9173 341.0081 0001804  96.1605 263.9733 13.18664301217901
ONEWEB-0420             
1 50495U 21132AC  26140.24973853 -.00000004  00000+0 -43987-4 0  9996
2 50495  87.9163 341.0209 0001714  82.6605 277.4722 13.18687202217894
ONEWEB-0421             
1 50496U 21132AD  26140.09124664  .00000021  00000+0  21307-4 0  9997
2 50496  87.9169 341.0486 0002214  83.9682 276.1703 13.18685458217912
ONEWEB-0424             
1 50497U 21132AE  26140.28010937  .00000049  00000+0  91286-4 0  9999
2 50497  87.9173 341.0081 0001614  97.4247 262.7069 13.18687166217968
ONEWEB-0426             
1 50498U 21132AF  26140.08705722  .00000024  00000+0  26861-4 0  9991
2 50498  87.9173 341.0378 0002530  93.1443 266.9979 13.18687228217883
ONEWEB-0427             
1 50499U 21132AG  26140.27841427 -.00000036  00000+0 -12368-3 0  9997
2 50499  87.9175 340.9878 0002008  93.2099 266.9263 13.18685670217938
ONEWEB-0429             
1 50500U 21132AH  26140.03729413  .00000020  00000+0  18555-4 0  9990
2 50500  87.9165 341.0626 0001762  84.0860 276.0473 13.18688905217875
ONEWEB-0430             
1 50501U 21132AJ  26140.25312153  .00000054  00000+0  10439-3 0  9993
2 50501  87.9167 341.0178 0001583  87.8833 272.2480 13.18686114217946
